ONEWEB-0120             
1 47266U 20100J   26135.14205590  .00001597  00000+0  44032-2 0  9997
2 47266  87.8962 357.2437 0001716  83.7677 276.3647 13.12434167260398
ONEWEB-0121             
1 47267U 20100K   26135.13004591  .00000298  00000+0  79287-3 0  9993
2 47267  87.8971 357.2286 0002108  81.2112 278.9255 13.12445324260305
ONEWEB-0122             
1 47268U 20100L   26135.04787135  .00000076  00000+0  17521-3 0  9993
2 47268  87.8974 357.2487 0001649  80.2139 279.9176 13.12445630260201
ONEWEB-0123             
1 47269U 20100M   26135.11987854 -.00000081  00000+0 -26098-3 0  9999
2 47269  87.8961 357.2457 0001820  87.4221 272.7116 13.12443102260350
ONEWEB-0124             
1 47270U 20100N   26135.10971164 -.00000370  00000+0 -10627-2 0  9998
2 47270  87.8959 357.2514 0001887  83.2352 276.8991 13.12441897260237
ONEWEB-0125             
1 47271U 20100P   26135.16393374  .00000040  00000+0  75231-4 0  9992
2 47271  87.8970 357.2201 0002064  88.1452 271.9913 13.12441311260306
ONEWEB-0126             
1 47272U 20100Q   26135.10815808 -.00000327  00000+0 -94411-3 0  9998
2 47272  87.8963 357.2492 0001648  85.5891 274.5426 13.12443464260361
ONEWEB-0127             
1 47273U 20100R   26135.15037275  .00000431  00000+0  11617-2 0  9998
2 47273  87.8959 357.2412 0001658  83.9178 276.2140 13.12441055260399
ONEWEB-0128             
1 47274U 20100S   26135.17239001 -.00000165  00000+0 -49285-3 0  9991
2 47274  87.8961 357.2502 0001888  73.0785 287.0551 13.12443553260416
ONEWEB-0129             
1 47275U 20100T   26135.15206140  .00000385  00000+0  10335-2 0  9993
2 47275  87.8970 357.2251 0000701 103.6730 256.4476 13.12443877260348
ONEWEB-0130             
1 47276U 20100U   26135.10292641 -.00000395  00000+0 -11336-2 0  9995
2 47276  87.8971 357.2296 0001702  81.7327 278.3994 13.12441072260308
ONEWEB-0131             
1 47277U 20100V   26135.17577355 -.00001189  00000+0 -33414-2 0  9994
2 47277  87.8978 357.2340 0001733  78.9095 281.2228 13.12445789260357
ONEWEB-0132             
1 47278U 20100W   26135.12835262  .00000171  00000+0  43976-3 0  9997
2 47278  87.8962 357.2473 0001821  81.5761 278.5574 13.12443342260240
ONEWEB-0133             
1 47279U 20100X   26135.14516105  .00000476  00000+0  12869-2 0  9996
2 47279  87.8975 357.2164 0001841  78.2318 281.9017 13.12441752260406
ONEWEB-0134             
1 47280U 20100Y   26135.11479442 -.00000216  00000+0 -63581-3 0  9999
2 47280  87.8975 357.2193 0001618  76.9666 283.1644 13.12443142260374
ONEWEB-0135             
1 47281U 20100Z   26135.16223272  .00000029  00000+0  44508-4 0  9992
2 47281  87.8961 357.2372 0001671  73.4799 286.6513 13.12440915260409
