[{"OBJECT_NAME":"ONEWEB-0120","OBJECT_ID":"2020-100J","EPOCH":"2026-05-15T03:24:33.629760","MEAN_MOTION":13.12434167,"ECCENTRICITY":0.0001716,"INCLINATION":87.8962,"RA_OF_ASC_NODE":357.2437,"ARG_OF_PERICENTER":83.7677,"MEAN_ANOMALY":276.3647,"EPHEMERIS_TYPE":0,"CLASSIFICATION_TYPE":"U","NORAD_CAT_ID":47266,"ELEMENT_SET_NO":999,"REV_AT_EPOCH":26039,"BSTAR":0.0044032,"MEAN_MOTION_DOT":1.597e-05,"MEAN_MOTION_DDOT":0.0},{"OBJECT_NAME":"ONEWEB-0121","OBJECT_ID":"2020-100K","EPOCH":"2026-05-15T03:07:15.966624","MEAN_MOTION":13.12445324,"ECCENTRICITY":0.0002108,"INCLINATION":87.8971,"RA_OF_ASC_NODE":357.2286,"ARG_OF_PERICENTER":81.2112,"MEAN_ANOMALY":278.9255,"EPHEMERIS_TYPE":0,"CLASSIFICATION_TYPE":"U","NORAD_CAT_ID":47267,"ELEMENT_SET_NO":999,"REV_AT_EPOCH":26030,"BSTAR":0.00079287,"MEAN_MOTION_DOT":2.98e-06,"MEAN_MOTION_DDOT":0.0},{"OBJECT_NAME":"ONEWEB-0122","OBJECT_ID":"2020-100L","EPOCH":"2026-05-15T01:08:56.084640","MEAN_MOTION":13.1244563,"ECCENTRICITY":0.0001649,"INCLINATION":87.8974,"RA_OF_ASC_NODE":357.2487,"ARG_OF_PERICENTER":80.2139,"MEAN_ANOMALY":279.9176,"EPHEMERIS_TYPE":0,"CLASSIFICATION_TYPE":"U","NORAD_CAT_ID":47268,"ELEMENT_SET_NO":999,"REV_AT_EPOCH":26020,"BSTAR":0.00017521,"MEAN_MOTION_DOT":7.6e-07,"MEAN_MOTION_DDOT":0.0},{"OBJECT_NAME":"ONEWEB-0123","OBJECT_ID":"2020-100M","EPOCH":"2026-05-15T02:52:37.505856","MEAN_MOTION":13.12443102,"ECCENTRICITY":0.000182,"INCLINATION":87.8961,"RA_OF_ASC_NODE":357.2457,"ARG_OF_PERICENTER":87.4221,"MEAN_ANOMALY":272.7116,"EPHEMERIS_TYPE":0,"CLASSIFICATION_TYPE":"U","NORAD_CAT_ID":47269,"ELEMENT_SET_NO":999,"REV_AT_EPOCH":26035,"BSTAR":-0.00026098,"MEAN_MOTION_DOT":-8.1e-07,"MEAN_MOTION_DDOT":0.0},{"OBJECT_NAME":"ONEWEB-0124","OBJECT_ID":"2020-100N","EPOCH":"2026-05-15T02:37:59.085696","MEAN_MOTION":13.12441897,"ECCENTRICITY":0.0001887,"INCLINATION":87.8959,"RA_OF_ASC_NODE":357.2514,"ARG_OF_PERICENTER":83.2352,"MEAN_ANOMALY":276.8991,"EPHEMERIS_TYPE":0,"CLASSIFICATION_TYPE":"U","NORAD_CAT_ID":47270,"ELEMENT_SET_NO":999,"REV_AT_EPOCH":26023,"BSTAR":-0.0010627,"MEAN_MOTION_DOT":-3.7e-06,"MEAN_MOTION_DDOT":0.0},{"OBJECT_NAME":"ONEWEB-0125","OBJECT_ID":"2020-100P","EPOCH":"2026-05-15T03:56:03.875136","MEAN_MOTION":13.12441311,"ECCENTRICITY":0.0002064,"INCLINATION":87.897,"RA_OF_ASC_NODE":357.2201,"ARG_OF_PERICENTER":88.1452,"MEAN_ANOMALY":271.9913,"EPHEMERIS_TYPE":0,"CLASSIFICATION_TYPE":"U","NORAD_CAT_ID":47271,"ELEMENT_SET_NO":999,"REV_AT_EPOCH":26030,"BSTAR":7.523100000000001e-05,"MEAN_MOTION_DOT":4e-07,"MEAN_MOTION_DDOT":0.0},{"OBJECT_NAME":"ONEWEB-0126","OBJECT_ID":"2020-100Q","EPOCH":"2026-05-15T02:35:44.858112","MEAN_MOTION":13.12443464,"ECCENTRICITY":0.0001648,"INCLINATION":87.8963,"RA_OF_ASC_NODE":357.2492,"ARG_OF_PERICENTER":85.5891,"MEAN_ANOMALY":274.5426,"EPHEMERIS_TYPE":0,"CLASSIFICATION_TYPE":"U","NORAD_CAT_ID":47272,"ELEMENT_SET_NO":999,"REV_AT_EPOCH":26036,"BSTAR":-0.0009441100000000001,"MEAN_MOTION_DOT":-3.27e-06,"MEAN_MOTION_DDOT":0.0},{"OBJECT_NAME":"ONEWEB-0127","OBJECT_ID":"2020-100R","EPOCH":"2026-05-15T03:36:32.205600","MEAN_MOTION":13.12441055,"ECCENTRICITY":0.0001658,"INCLINATION":87.8959,"RA_OF_ASC_NODE":357.2412,"ARG_OF_PERICENTER":83.9178,"MEAN_ANOMALY":276.214,"EPHEMERIS_TYPE":0,"CLASSIFICATION_TYPE":"U","NORAD_CAT_ID":47273,"ELEMENT_SET_NO":999,"REV_AT_EPOCH":26039,"BSTAR":0.0011616999999999999,"MEAN_MOTION_DOT":4.31e-06,"MEAN_MOTION_DDOT":0.0},{"OBJECT_NAME":"ONEWEB-0128","OBJECT_ID":"2020-100S","EPOCH":"2026-05-15T04:08:14.496864","MEAN_MOTION":13.12443553,"ECCENTRICITY":0.0001888,"INCLINATION":87.8961,"RA_OF_ASC_NODE":357.2502,"ARG_OF_PERICENTER":73.0785,"MEAN_ANOMALY":287.0551,"EPHEMERIS_TYPE":0,"CLASSIFICATION_TYPE":"U","NORAD_CAT_ID":47274,"ELEMENT_SET_NO":999,"REV_AT_EPOCH":26041,"BSTAR":-0.00049285,"MEAN_MOTION_DOT":-1.65e-06,"MEAN_MOTION_DDOT":0.0},{"OBJECT_NAME":"ONEWEB-0129","OBJECT_ID":"2020-100T","EPOCH":"2026-05-15T03:38:58.104960","MEAN_MOTION":13.12443877,"ECCENTRICITY":7.01e-05,"INCLINATION":87.897,"RA_OF_ASC_NODE":357.2251,"ARG_OF_PERICENTER":103.673,"MEAN_ANOMALY":256.4476,"EPHEMERIS_TYPE":0,"CLASSIFICATION_TYPE":"U","NORAD_CAT_ID":47275,"ELEMENT_SET_NO":999,"REV_AT_EPOCH":26034,"BSTAR":0.0010335,"MEAN_MOTION_DOT":3.85e-06,"MEAN_MOTION_DDOT":0.0},{"OBJECT_NAME":"ONEWEB-0130","OBJECT_ID":"2020-100U","EPOCH":"2026-05-15T02:28:12.841824","MEAN_MOTION":13.12441072,"ECCENTRICITY":0.0001702,"INCLINATION":87.8971,"RA_OF_ASC_NODE":357.2296,"ARG_OF_PERICENTER":81.7327,"MEAN_ANOMALY":278.3994,"EPHEMERIS_TYPE":0,"CLASSIFICATION_TYPE":"U","NORAD_CAT_ID":47276,"ELEMENT_SET_NO":999,"REV_AT_EPOCH":26030,"BSTAR":-0.0011336,"MEAN_MOTION_DOT":-3.95e-06,"MEAN_MOTION_DDOT":0.0},{"OBJECT_NAME":"ONEWEB-0131","OBJECT_ID":"2020-100V","EPOCH":"2026-05-15T04:13:06.834720","MEAN_MOTION":13.12445789,"ECCENTRICITY":0.0001733,"INCLINATION":87.8978,"RA_OF_ASC_NODE":357.234,"ARG_OF_PERICENTER":78.9095,"MEAN_ANOMALY":281.2228,"EPHEMERIS_TYPE":0,"CLASSIFICATION_TYPE":"U","NORAD_CAT_ID":47277,"ELEMENT_SET_NO":999,"REV_AT_EPOCH":26035,"BSTAR":-0.0033414,"MEAN_MOTION_DOT":-1.189e-05,"MEAN_MOTION_DDOT":0.0},{"OBJECT_NAME":"ONEWEB-0132","OBJECT_ID":"2020-100W","EPOCH":"2026-05-15T03:04:49.666368","MEAN_MOTION":13.12443342,"ECCENTRICITY":0.0001821,"INCLINATION":87.8962,"RA_OF_ASC_NODE":357.2473,"ARG_OF_PERICENTER":81.5761,"MEAN_ANOMALY":278.5574,"EPHEMERIS_TYPE":0,"CLASSIFICATION_TYPE":"U","NORAD_CAT_ID":47278,"ELEMENT_SET_NO":999,"REV_AT_EPOCH":26024,"BSTAR":0.00043976,"MEAN_MOTION_DOT":1.71e-06,"MEAN_MOTION_DDOT":0.0},{"OBJECT_NAME":"ONEWEB-0133","OBJECT_ID":"2020-100X","EPOCH":"2026-05-15T03:29:01.914720","MEAN_MOTION":13.12441752,"ECCENTRICITY":0.0001841,"INCLINATION":87.8975,"RA_OF_ASC_NODE":357.2164,"ARG_OF_PERICENTER":78.2318,"MEAN_ANOMALY":281.9017,"EPHEMERIS_TYPE":0,"CLASSIFICATION_TYPE":"U","NORAD_CAT_ID":47279,"ELEMENT_SET_NO":999,"REV_AT_EPOCH":26040,"BSTAR":0.0012869000000000001,"MEAN_MOTION_DOT":4.76e-06,"MEAN_MOTION_DDOT":0.0},{"OBJECT_NAME":"ONEWEB-0134","OBJECT_ID":"2020-100Y","EPOCH":"2026-05-15T02:45:18.237888","MEAN_MOTION":13.12443142,"ECCENTRICITY":0.0001618,"INCLINATION":87.8975,"RA_OF_ASC_NODE":357.2193,"ARG_OF_PERICENTER":76.9666,"MEAN_ANOMALY":283.1644,"EPHEMERIS_TYPE":0,"CLASSIFICATION_TYPE":"U","NORAD_CAT_ID":47280,"ELEMENT_SET_NO":999,"REV_AT_EPOCH":26037,"BSTAR":-0.00063581,"MEAN_MOTION_DOT":-2.16e-06,"MEAN_MOTION_DDOT":0.0},{"OBJECT_NAME":"ONEWEB-0135","OBJECT_ID":"2020-100Z","EPOCH":"2026-05-15T03:53:36.907008","MEAN_MOTION":13.12440915,"ECCENTRICITY":0.0001671,"INCLINATION":87.8961,"RA_OF_ASC_NODE":357.2372,"ARG_OF_PERICENTER":73.4799,"MEAN_ANOMALY":286.6513,"EPHEMERIS_TYPE":0,"CLASSIFICATION_TYPE":"U","NORAD_CAT_ID":47281,"ELEMENT_SET_NO":999,"REV_AT_EPOCH":26040,"BSTAR":4.4508e-05,"MEAN_MOTION_DOT":2.9e-07,"MEAN_MOTION_DDOT":0.0}]